NORAD_CAT_ID,OBJECT_NAME,OBJECT_TYPE,EPOCH,MEAN_MOTION,ECCENTRICITY,INCLINATION,RA_OF_ASC_NODE,ARG_OF_PERICENTER,MEAN_ANOMALY,BSTAR,MEAN_MOTION_DOT,MEAN_MOTION_DDOT,TLE_LINE0,TLE_LINE1,TLE_LINE2,SEMIMAJOR_AXIS,PERIOD,APOGEE,PERIGEE,DECAYED
37853,RAX-2,PAYLOAD,2022-06-16 00:35:34,15.09184456,0.015364,101.7074,270.7546,91.6097,270.2721,0.00069958,0.00014568,0.0,0 RAX-2,1 37853U 11061D   22167.02470641  .00014568  00000-0  69958-3 0  9991,2 37853 101.7074 270.7546 0153640  91.6097 270.2721 15.09184456580478,6916.828,95.416,644.9630000000002,432.423,0.0
37853,RAX-2,PAYLOAD,2022-06-19 06:33:23,15.09259486,0.0153466,101.7068,275.6968,81.9273,279.932,0.00057262,0.00011909999999999998,0.0,0 RAX-2,1 37853U 11061D   22170.27319337  .00011910  00000-0  57262-3 0  9999,2 37853 101.7068 275.6968 0153466  81.9273 279.9320 15.09259486580968,6916.598000000001,95.411,644.61,432.31699999999995,0.0
37853,RAX-2,PAYLOAD,2022-06-19 20:52:33,15.09271183,0.0153388,101.7066,276.6044,80.1407,281.7085,0.00050336,0.00010448,0.0,0 RAX-2,1 37853U 11061D   22170.86983560  .00010448  00000-0  50336-3 0  9999,2 37853 101.7066 276.6044 0153388  80.1407 281.7085 15.09271183581053,6916.563,95.41,644.52,432.336,0.0
37853,RAX-2,PAYLOAD,2022-06-20 12:47:10,15.09285186,0.0153293,101.7064,277.613,78.1525,283.6834,0.00048486,0.00010059,0.0,0 RAX-2,1 37853U 11061D   22171.53276497  .00010059  00000-0  48486-3 0  9999,2 37853 101.7064 277.6130 0153293  78.1525 283.6834 15.09285186581636,6916.52,95.40899999999999,644.41,432.36,0.0
37853,RAX-2,PAYLOAD,2022-06-20 19:09:01,15.09291368,0.0153252,101.7064,278.0163,77.3557,284.4743,0.00049277,0.00010226,0.0,0 RAX-2,1 37853U 11061D   22171.79793491  .00010226  00000-0  49277-3 0  9990,2 37853 101.7064 278.0163 0153252  77.3557 284.4743 15.09291368581196,6916.501,95.40899999999999,644.363,432.369,0.0
37853,RAX-2,PAYLOAD,2022-06-21 06:17:15,15.0930076,0.0153207,101.7065,278.7223,75.9655,285.8537,0.00047468,9.845e-05,0.0,0 RAX-2,1 37853U 11061D   22172.26197990  .00009845  00000-0  47468-3 0  9990,2 37853 101.7065 278.7223 0153207  75.9655 285.8537 15.09300760581265,6916.472,95.40799999999999,644.303,432.37199999999996,0.0
37853,RAX-2,PAYLOAD,2022-06-21 20:36:23,15.09311939,0.015312000000000001,101.7065,279.6298,74.1685,287.6349,0.00044936,9.311e-05,0.0,0 RAX-2,1 37853U 11061D   22172.85860483  .00009311  00000-0  44936-3 0  9994,2 37853 101.7065 279.6298 0153120  74.1685 287.6349 15.09311939581839,6916.438,95.40799999999999,644.2080000000002,432.399,0.0
37853,RAX-2,PAYLOAD,2022-06-22 12:30:58,15.09325189,0.0153093,101.7063,280.6382,72.1758,289.6090000000001,0.00046597,9.664e-05,0.0,0 RAX-2,1 37853U 11061D   22173.52151560  .00009664  00000-0  46597-3 0  9994,2 37853 101.7063 280.6382 0153093  72.1758 289.6090 15.09325189581456,6916.398,95.40700000000001,644.148,432.37800000000004,0.0
37853,RAX-2,PAYLOAD,2022-06-22 18:52:48,15.09330963,0.0153062,101.7064,281.0415,71.3792,290.3974,0.00047245,9.802e-05,0.0,0 RAX-2,1 37853U 11061D   22173.78667817  .00009802  00000-0  47245-3 0  9994,2 37853 101.7064 281.0415 0153062  71.3792 290.3974 15.09330963581494,6916.38,95.40700000000001,644.109,432.38199999999995,0.0
37853,RAX-2,PAYLOAD,2022-06-23 12:22:51,15.093435699999999,0.0153043,101.7066,282.1507,69.2084,292.5449,0.00042072,8.712e-05,0.0,0 RAX-2,1 37853U 11061D   22174.51587046  .00008712  00000-0  42072-3 0  9993,2 37853 101.7066 282.1507 0153043  69.2084 292.5449 15.09343570582084,6916.342,95.406,644.056,432.35699999999997,0.0
37853,RAX-2,PAYLOAD,2022-06-23 20:20:08,15.09348967,0.0153035,101.7067,282.655,68.218,293.524,0.00037671,7.783e-05,0.0,0 RAX-2,1 37853U 11061D   22174.84731939  .00007783  00000-0  37671-3 0  9997,2 37853 101.7067 282.6550 0153035  68.2180 293.5240 15.09348967581652,6916.325,95.405,644.034,432.346,0.0
37853,RAX-2,PAYLOAD,2022-06-24 05:52:52,15.09355747,0.0153031,101.7069,283.2601,67.0303,294.6974,0.00038881,8.04e-05,0.0,0 RAX-2,1 37853U 11061D   22175.24505638  .00008040  00000-0  38881-3 0  9998,2 37853 101.7069 283.2601 0153031  67.0303 294.6974 15.09355747581715,6916.304,95.405,644.01,432.329,0.0
37853,RAX-2,PAYLOAD,2022-06-24 20:11:59,15.09363754,0.015304,101.7072,284.1679,65.2518,296.4535,0.0003345,6.895e-05,0.0,0 RAX-2,1 37853U 11061D   22175.84165887  .00006895  00000-0  33450-3 0  9995,2 37853 101.7072 284.1679 0153040  65.2518 296.4535 15.09363754582285,6916.28,95.404,643.992,432.298,0.0
37853,RAX-2,PAYLOAD,2022-06-25 12:06:32,15.09374509,0.015303,101.7074,285.1764,63.2763,298.4022,0.00035268,7.281e-05,0.0,0 RAX-2,1 37853U 11061D   22176.50454574  .00007281  00000-0  35268-3 0  9992,2 37853 101.7074 285.1764 0153030  63.2763 298.4022 15.09374509581903,6916.2469999999985,95.404,643.951,432.273,0.0
37853,RAX-2,PAYLOAD,2022-06-25 20:03:49,15.09380373,0.015302000000000001,101.7076,285.6808,62.2896,299.3747,0.00036894,7.626e-05,0.0,0 RAX-2,1 37853U 11061D   22176.83598727  .00007626  00000-0  36894-3 0  9996,2 37853 101.7076 285.6808 0153020  62.2896 299.3747 15.09380373581959,6916.229,95.40299999999999,643.9259999999998,432.26199999999994,0.0
37853,RAX-2,PAYLOAD,2022-06-26 04:01:05,15.09389598,0.015300799999999996,101.7076,286.1852,61.2997,300.3499,0.00047547,9.881e-05,0.0,0 RAX-2,1 37853U 11061D   22177.16742687  .00009881  00000-0  47547-3 0  9991,2 37853 101.7076 286.1852 0153008  61.2997 300.3499 15.09389598582485,6916.201,95.40299999999999,643.889,432.24300000000005,0.0
37853,RAX-2,PAYLOAD,2022-06-26 13:33:49,15.09392783,0.015300999999999999,101.7078,286.7904,60.119,301.5127,0.00037938,7.849e-05,0.0,0 RAX-2,1 37853U 11061D   22177.56515380  .00007849  00000-0  37938-3 0  9998,2 37853 101.7078 286.7904 0153010  60.1190 301.5127 15.09392783582062,6916.191,95.40299999999999,643.881,432.23199999999997,0.0
37853,RAX-2,PAYLOAD,2022-06-26 21:31:05,15.093991399999998,0.015299700000000001,101.7079,287.2947,59.1341,302.482,0.00038638,7.999e-05,0.0,0 RAX-2,1 37853U 11061D   22177.89659071  .00007999  00000-0  38638-3 0  9994,2 37853 101.7079 287.2947 0152997  59.1341 302.4820 15.09399140582115,6916.172,95.402,643.852,432.221,0.0
37853,RAX-2,PAYLOAD,2022-06-27 05:28:21,15.09404666,0.0152981,101.708,287.7990000000001,58.1446,303.4554,0.00038539,7.979e-05,0.0,0 RAX-2,1 37853U 11061D   22178.22802664  .00007979  00000-0  38539-3 0  9998,2 37853 101.7080 287.7990 0152981  58.1446 303.4554 15.09404666582641,6916.155,95.402,643.8240000000002,432.216,0.0
37853,RAX-2,PAYLOAD,2022-06-27 21:22:53,15.0941144,0.0152944,101.7082,288.8078,56.1686,305.39799999999997,0.00027188,5.578e-05,0.0,0 RAX-2,1 37853U 11061D   22178.89089531  .00005578  00000-0  27188-3 0  9992,2 37853 101.7082 288.8078 0152944  56.1686 305.3980 15.09411440582265,6916.134,95.40100000000001,643.7769999999998,432.221,0.0
37853,RAX-2,PAYLOAD,2022-06-28 06:55:36,15.09415962,0.015291899999999999,101.7083,289.4129,54.9772,306.5683,0.00024666,5.044e-05,0.0,0 RAX-2,1 37853U 11061D   22179.28861463  .00005044  00000-0  24666-3 0  9994,2 37853 101.7083 289.4129 0152919  54.9772 306.5683 15.09415962582800,6916.12,95.40100000000001,643.746,432.225,0.0
37853,RAX-2,PAYLOAD,2022-06-28 13:17:24,15.09419391,0.015289700000000003,101.7084,289.8164,54.1865,307.3446,0.00024967,5.108e-05,0.0,0 RAX-2,1 37853U 11061D   22179.55376008  .00005108  00000-0  24967-3 0  9995,2 37853 101.7084 289.8164 0152897  54.1865 307.3446 15.09419391582361,6916.11,95.40100000000001,643.72,432.23,0.0
37853,RAX-2,PAYLOAD,2022-06-28 21:14:40,15.09422433,0.0152864,101.7085,290.3206,53.1945,308.3183,0.00022014,4.484e-05,0.0,0 RAX-2,1 37853U 11061D   22179.88519124  .00004484  00000-0  22014-3 0  9996,2 37853 101.7085 290.3206 0152864  53.1945 308.3183 15.09422433582414,6916.101,95.40100000000001,643.688,432.24300000000005,0.0
37853,RAX-2,PAYLOAD,2022-06-29 06:47:23,15.09426331,0.0152834,101.7085,290.9258,51.9995,309.4907,0.00021754,4.429e-05,0.0,0 RAX-2,1 37853U 11061D   22180.28290773  .00004429  00000-0  21754-3 0  9997,2 37853 101.7085 290.9258 0152834  51.9995 309.4907 15.09426331582478,6916.089,95.4,643.655,432.25199999999995,0.0
37853,RAX-2,PAYLOAD,2022-06-29 21:06:27,15.09430655,0.015280600000000004,101.7086,291.8335,50.2089,311.2465,0.00019217,3.892e-05,0.0,0 RAX-2,1 37853U 11061D   22180.87948080  .00003892  00000-0  19217-3 0  9997,2 37853 101.7086 291.8335 0152806  50.2089 311.2465 15.09430655582564,6916.076,95.4,643.622,432.259,0.0
37853,RAX-2,PAYLOAD,2022-06-30 06:39:09,15.09433111,0.015278700000000001,101.7086,292.4387,49.0174,312.4142,0.00016535,3.325e-05,0.0,0 RAX-2,1 37853U 11061D   22181.27719499  .00003325  00000-0  16535-3 0  9993,2 37853 101.7086 292.4387 0152787  49.0174 312.4142 15.09433111582629,6916.068,95.4,643.602,432.265,0.0
37853,RAX-2,PAYLOAD,2022-06-30 20:58:13,15.09437339,0.015275299999999999,101.7087,293.3464,47.2365,314.1583,0.00016291,3.273e-05,0.0,0 RAX-2,1 37853U 11061D   22181.87376483  .00003273  00000-0  16291-3 0  9992,2 37853 101.7087 293.3464 0152753  47.2365 314.1583 15.09437339582715,6916.055,95.4,643.565,432.275,0.0
37853,RAX-2,PAYLOAD,2022-07-01 04:55:28,15.09440024,0.015274000000000001,101.7087,293.8508,46.2405,315.1334,0.00016801,3.381e-05,0.0,0 RAX-2,1 37853U 11061D   22182.20519173  .00003381  00000-0  16801-3 0  9992,2 37853 101.7087 293.8508 0152740  46.2405 315.1334 15.09440024583248,6916.047,95.4,643.548,432.276,0.0
37853,RAX-2,PAYLOAD,2022-07-01 06:30:55,15.09440582,0.0152743,101.7087,293.9517,46.0394,315.3302,0.00016852,3.392e-05,0.0,0 RAX-2,1 37853U 11061D   22182.27147703  .00003392  00000-0  16852-3 0  9993,2 37853 101.7087 293.9517 0152743  46.0394 315.3302 15.09440582582770,6916.045,95.4,643.548,432.273,0.0
37853,RAX-2,PAYLOAD,2022-07-01 20:49:58,15.09444655,0.0152732,101.7088,294.8596,44.2556,317.0754,0.00016324,3.281e-05,0.0,0 RAX-2,1 37853U 11061D   22182.86804382  .00003281  00000-0  16324-3 0  9992,2 37853 101.7088 294.8596 0152732  44.2556 317.0754 15.09444655582861,6916.033,95.399,643.528,432.26800000000003,0.0
